2022-023A               
1 51946U 22023A   26066.38437076  .00004303  00000+0  19500-3 0  9999
2 51946  63.4765 256.0240 0098533 341.4326  18.3199 15.18202647222269
STARLINK-35438          
1 66347U 25253AE  26068.46508853  .00017131  00000+0  63054-3 0  9997
2 66347  43.0014 213.4659 0001695 255.7018 104.3646 15.27582677 20218
